THOR 6                  
1 36033U 09058B   26120.34408966 -.00000008  00000+0  00000+0 0  9995
2 36033   0.0164 219.3640 0002147 201.3444 280.6247  1.00273249 60525
INTELSAT 14 (IS-14)     
1 36097U 09064A   26120.26409600 -.00000272  00000+0  00000+0 0  9992
2 36097   0.0048  41.9709 0002609   2.2285 224.0856  1.00271224 60120
EUTELSAT 36B            
1 36101U 09065A   26120.56820247  .00000115  00000+0  00000+0 0  9991
2 36101   0.3722  80.0472 0006037 320.5434  72.9607  1.00271835 60234
INTELSAT 15 (IS-15)     
1 36106U 09067A   26120.57961295 -.00000183  00000+0  00000+0 0  9994
2 36106   0.0150 272.6461 0002442 133.0642 106.6278  1.00271611 40758
WGS F3 (USA 211)        
1 36108U 09068A   26120.53240898  .00000067  00000+0  00000+0 0  9992
2 36108   0.3872  85.4351 0000343   1.6326 193.0876  1.00269949 46110
DIRECTV 12              
1 36131U 09075A   26120.46652450 -.00000102  00000+0  00000+0 0  9990
2 36131   0.0316 106.1597 0000332 321.8816 215.5991  1.00272467 46070
BEIDOU-2 G1             
1 36287U 10001A   26120.58601490 -.00000276  00000+0  00000+0 0  9996
2 36287   4.1842  60.5406 0003603 296.7974 212.6058  1.00274653 59695
SDO                     
1 36395U 10005A   26120.41395799 -.00000057  00000+0  00000+0 0  9991
2 36395  34.5547  87.0614 0001055  28.2871 150.2475  1.00272940 59587
INTELSAT 16 (IS-16)     
1 36397U 10006A   26120.54306903 -.00000243  00000+0  00000+0 0  9994
2 36397   0.0153 283.0066 0002332 145.5221 269.2653  1.00272590 59175
EWS-G2 (GOES 15)        
1 36411U 10008A   26120.57071581  .00000025  00000+0  00000+0 0  9994
2 36411   1.1519  83.7072 0004343  23.6988  19.8340  1.00273156 59162
ECHOSTAR 14             
1 36499U 10010A   26120.22446215  .00000001  00000+0  00000+0 0  9999
2 36499   0.0196 262.5953 0002020 142.9516 134.5319  1.00271481 46070
SES-1                   
1 36516U 10016A   26120.53821567 -.00000112  00000+0  00000+0 0  9990
2 36516   0.0161 300.4916 0002762 102.3065 268.4438  1.00272301 58552
ASTRA 3B                
1 36581U 10021A   26120.56282912  .00000140  00000+0  00000+0 0  9996
2 36581   1.3471  84.0896 0003919 324.0675  36.4629  1.00270907 58385
COMSATBW-2              
1 36582U 10021B   26120.27562272  .00000000  00000+0  00000+0 0  9990
2 36582   0.0159 245.1919 0003014 171.7042 273.6957  1.00269607 58476
BEIDOU-2 G3             
1 36590U 10024A   26120.43136336 -.00000132  00000+0  00000+0 0  9995
2 36590   4.4049  61.7070 0008834 339.2578  52.3196  1.00270272 58298
BADR-5                  
1 36592U 10025A   26120.56334912  .00000147  00000+0  00000+0 0  9997
2 36592   0.0472 109.6840 0003566 337.4590   0.1811  1.00275049 52735
COMS 1                  
1 36744U 10032A   26120.36965644 -.00000341  00000+0  00000+0 0  9991
2 36744   4.6841  75.9895 0001206 329.1308  74.4136  1.00271439 50611
ARABSAT-5A              
1 36745U 10032B   26120.56421579  .00000156  00000+0  00000+0 0  9991
2 36745   0.0807  53.7380 0004462  12.8672  25.5093  1.00271539 58173
ECHOSTAR 15             
1 36792U 10034A   26120.53466233  .00000001  00000+0  00000+0 0  9997
2 36792   0.0132 300.5265 0002139 108.7840 242.8679  1.00274332 57843
BEIDOU-2 IGSO-1         
1 36828U 10036A   26119.06205814 -.00000064  00000+0  00000+0 0  9991
2 36828  54.2930 163.4039 0058877 224.2001 318.3940  1.00283168 57609
NILESAT 201             
1 36830U 10037A   26120.55691132 -.00000055  00000+0  00000+0 0  9993
2 36830   0.0466  97.4279 0003119 319.1860 355.3908  1.00271187 57897
RASCOM-QAF 1R           
1 36831U 10037B   26120.27354271  .00000020  00000+0  00000+0 0  9994
2 36831   0.0067 268.9478 0006583 128.4276 282.2159  1.00271270 57823
AEHF-1 (USA 214)        
1 36868U 10039A   26119.99371318  .00000151  00000+0  00000+0 0  9999
2 36868   8.1025  68.6797 0004372 319.4264 217.6708  1.00279285 53178
XM-5                    
1 37185U 10053A   26120.53535566 -.00000021  00000+0  00000+0 0  9994
2 37185   0.0589 271.5139 0003546 271.4584 113.0344  1.00271096 57009
BSAT-3B                 
1 37207U 10056B   26120.50864468 -.00000348  00000+0  00000+0 0  9997
2 37207   0.0421 233.9985 0000363 255.2623  22.1265  1.00270168 51621
BEIDOU-2 G4             
1 37210U 10057A   26120.63331023 -.00000110  00000+0  00000+0 0  9999
2 37210   3.5311  69.2163 0006068 214.1277 323.1366  1.00270580 56816
SKYTERRA 1              
1 37218U 10061A   26120.41313943 -.00000116  00000+0  00000+0 0  9995
2 37218   5.0260  50.8836 0003229  15.2120 199.6533  1.00272675 56718
HYLAS 1                 
1 37237U 10065A   26120.13307374  .00000093  00000+0  00000+0 0  9993
2 37237   5.5238  73.5939 0001737 297.8859 268.3187  1.00270904  6407
INTELSAT 17 (IS-17)     
1 37238U 10065B   26120.42867668  .00000000  00000+0  00000+0 0  9991
2 37238   0.0131 225.5050 0002723 191.8431  21.3704  1.00273931 52763
BEIDOU-2 IGSO-2         
1 37256U 10068A   26120.36488975 -.00000228  00000+0  00000+0 0  9990
2 37256  47.6377 272.4221 0053342 211.9134 330.3483  1.00299067 56310
EUTELSAT KA-SAT 9A      
1 37258U 10069A   26120.20342909  .00000063  00000+0  00000+0 0  9998
2 37258   0.0617 356.9053 0003951 139.2980 164.1967  1.00272421 43529
HISPASAT 30W-5          
1 37264U 10070A   26120.40960993 -.00000214  00000+0  00000+0 0  9997
2 37264   0.0499  91.6602 0004531 333.3819 270.8157  1.00275111 52705
KOREASAT 6              
1 37265U 10070B   26120.53239091 -.00000109  00000+0  00000+0 0  9993
2 37265   0.0188 264.8447 0002790 147.4439 157.7429  1.00272987 56290
BEIDOU-2 IGSO-3         
1 37384U 11013A   26119.76150138 -.00000213  00000+0  00000+0 0  9996
2 37384  62.3464  40.6087 0034013 187.3422  12.0745  1.00279702 55170
INTELSAT 28 (IS-28)     
1 37392U 11016A   26120.40926326 -.00000222  00000+0  00000+0 0  9991
2 37392   1.6842  83.1753 0004188 321.3673 289.4421  1.00272477 52805
YAHSAT 1A               
1 37393U 11016B   26120.56863581  .00000000  00000+0  00000+0 0  9995
2 37393   0.0131 248.7533 0003387 160.9460  66.0052  1.00269598 41937
SBIRS GEO-1 (USA 230)   
1 37481U 11019A   26120.49711797  .00000103  00000+0  00000+0 0  9993
2 37481   4.4328  53.1227 0002200 341.1789  54.9074  1.00272144 54923
TELSTAR 14R             
1 37602U 11021A   26120.47441120  .00000000  00000+0  00000+0 0  9995
2 37602   0.0143 274.3614 0002513 122.4828 289.3650  1.00270642 55356
GSAT-8                  
1 37605U 11022A   26120.56906914  .00000088  00000+0  00000+0 0  9992
2 37605   2.0096  82.3770 0004380 229.4984 166.5599  1.00271679 52742
ST-2                    
1 37606U 11022B   26120.57405802 -.00000208  00000+0  00000+0 0  9999
2 37606   0.0134 257.7673 0002138 150.5220 104.8724  1.00268899 54804
ZHONGXING-10            
1 37677U 11026A   26120.57513583 -.00000186  00000+0  00000+0 0  9992
2 37677   0.9254  84.6816 0003081 324.7575 101.6834  1.00272366 54526
SES-3                   
1 37748U 11035A   26120.53778234 -.00000099  00000+0  00000+0 0  9996
2 37748   1.2048  83.5543 0003269 320.7679 264.7665  1.00272007 54114
KAZSAT-2                
1 37749U 11035B   26120.39558554 -.00000195  00000+0  00000+0 0  9999
2 37749   0.0424 282.6511 0001687 183.2424 341.3509  1.00266877 52912
BEIDOU-2 IGSO-4         
1 37763U 11038A   26119.60233541  .00000014  00000+0  00000+0 0  9995
2 37763  54.5887 166.1187 0158590 231.8563 128.1419  1.00255675 54164
ASTRA 1N                
1 37775U 11041A   26120.25947437  .00000121  00000+0  00000+0 0  9990
2 37775   0.1059  53.2744 0005805   9.1794 268.3566  1.00271796 44040
BSAT-3C (JCSAT-110R)    
1 37776U 11041B   26120.50864468 -.00000348  00000+0  00000+0 0  9993
2 37776   0.0417  46.4850 0000187  38.8043  66.2403  1.00268084 49994
PAKSAT-1R               
1 37779U 11042A   26120.56568913  .00000156  00000+0  00000+0 0  9995
2 37779   0.5665  84.9119 0003251 319.3473  55.9113  1.00267313 54006
SES-2                   
1 37809U 11049A   26119.89925794 -.00000196  00000+0  00000+0 0  9999
2 37809   0.0589  78.0472 0002932 320.8049  55.7364  1.00272430 53480
ARABSAT-5C              
1 37810U 11049B   26120.49079128  .00000125  00000+0  00000+0 0  9991
2 37810   0.0548   4.8368 0002742  43.2658   7.0323  1.00269505 53551
EUTELSAT 7 WEST A       
1 37816U 11051A   26120.55449228 -.00000058  00000+0  00000+0 0  9995
2 37816   0.0884  42.0673 0003005  22.6831 346.0766  1.00272127 53393
QUETZSAT 1              
1 37826U 11054A   26120.40033655 -.00000240  00000+0  00000+0 0  9999
2 37826   0.0592  73.0185 0002809 344.2683 228.1794  1.00271362 49397
INTELSAT 18 (IS-18)     
1 37834U 11056A   26120.52252894  .00000055  00000+0  00000+0 0  9994
2 37834   0.0147 268.1789 0002028 134.8442 183.5509  1.00271395 53331
EUTELSAT 16A            
1 37836U 11057A   26120.27614272  .00000105  00000+0  00000+0 0  9997
2 37836   0.0579  18.7587 0005749  26.0483 288.8242  1.00272181  6859
VIASAT-1                
1 37843U 11059A   26120.53535566 -.00000021  00000+0  00000+0 0  9992
2 37843   0.0179 264.7018 0002419 139.3512 252.0575  1.00271344 46842
ASIASAT 7               
1 37933U 11069A   26120.57912251 -.00000331  00000+0  00000+0 0  9991
2 37933   0.0165 261.1988 0001750 141.2955 129.9980  1.00268983 44388
BEIDOU-2 IGSO-5         
1 37948U 11073A   26119.89399902 -.00000218  00000+0  00000+0 0  9991
2 37948  47.7682 272.1393 0110794 220.7376 140.2150  1.00259878 52654
LUCH-5A                 
1 37951U 11074B   26119.59305076 -.00000047  00000+0  00000+0 0  9992
2 37951   8.6332  74.5081 0002797 310.5307 212.9489  1.00273586 52563
NIGCOMSAT 1R            
1 38014U 11077A   26120.49529796  .00000146  00000+0  00000+0 0  9993
2 38014   0.0282 240.4677 0002649 113.9601  84.8818  1.00276911 52474
WGS F4 (USA 233)        
1 38070U 12003A   26120.43309669 -.00000213  00000+0  00000+0 0  9990
2 38070   0.0191 237.0718 0000307 208.3242  17.2847  1.00271246 43672
